NORAD_CAT_ID,OBJECT_NAME,OBJECT_TYPE,EPOCH,MEAN_MOTION,ECCENTRICITY,INCLINATION,RA_OF_ASC_NODE,ARG_OF_PERICENTER,MEAN_ANOMALY,BSTAR,MEAN_MOTION_DOT,MEAN_MOTION_DDOT,TLE_LINE0,TLE_LINE1,TLE_LINE2,SEMIMAJOR_AXIS,PERIOD,APOGEE,PERIGEE,DECAYED
52840.0,STARLINK-4049,PAYLOAD,2024-02-24 04:55:38,15.0883675,0.0001573,53.217,136.2512,91.6908,268.4264,2.6052e-05,1.27e-06,0.0,0 STARLINK-4049,1 52840U 22062L   24055.20530141  .00000127  00000-0  26052-4 0  9992,2 52840  53.2170 136.2512 0001573  91.6908 268.4264 15.08836750 93881,6917.89,95.438,540.844,538.667,0.0
52840.0,STARLINK-4049,PAYLOAD,2024-02-24 12:52:33,15.08838882,0.0001521,53.217,134.7639,91.9117,268.2049,8.1446e-05,1.008e-05,0.0,0 STARLINK-4049,1 52840U 22062L   24055.53650311  .00001008  00000-0  81446-4 0  9997,2 52840  53.2170 134.7639 0001521  91.9117 268.2049 15.08838882 93441,6917.884,95.438,540.801,538.697,0.0
52840.0,STARLINK-4049,PAYLOAD,2024-02-25 11:07:57,15.08848634,0.0001477,53.2161,130.6002,90.7939,269.3223,0.00024313,3.584e-05,0.0,0 STARLINK-4049,1 52840U 22062L   24056.46385906  .00003584  00000-0  24313-3 0  9995,2 52840  53.2161 130.6002 0001477  90.7939 269.3223 15.08848634 94071,6917.854,95.437,540.741,538.697,0.0
52840.0,STARLINK-4049,PAYLOAD,2024-02-25 14:18:43,15.0885937,0.0001528,53.2162,130.0048,88.9058,271.2109,0.00045735,7.002e-05,0.0,0 STARLINK-4049,1 52840U 22062L   24056.59633463  .00007002  00000-0  45735-3 0  9993,2 52840  53.2162 130.0048 0001528  88.9058 271.2109 15.08859370 93606,6917.821,95.436,540.743,538.629,0.0
52840.0,STARLINK-4049,PAYLOAD,2024-02-26 04:37:12,15.0884419,0.0001568,53.2175,127.3304,81.8663,278.2507,0.00021715,3.17e-05,0.0,0 STARLINK-4049,1 52840U 22062L   24057.19250283  .00003170  00000-0  21715-3 0  9999,2 52840  53.2175 127.3304 0001568  81.8663 278.2507 15.08844190 94189,6917.868,95.437,540.817,538.648,0.0
52840.0,STARLINK-4049,PAYLOAD,2024-02-26 10:58:44,15.08850094,0.0001791,53.2164,126.1413,80.866,279.2534,0.00027858,4.15e-05,0.0,0 STARLINK-4049,1 52840U 22062L   24057.45745862  .00004150  00000-0  27858-3 0  9993,2 52840  53.2164 126.1413 0001791  80.8660 279.2534 15.08850094 93730,6917.85,95.437,540.954,538.476,0.0
52840.0,STARLINK-4049,PAYLOAD,2024-02-27 04:27:59,15.08840525,0.0002011,53.218,122.8727,77.1021,283.0195,6.6337e-05,7.68e-06,0.0,0 STARLINK-4049,1 52840U 22062L   24058.18610238  .00000768  00000-0  66337-4 0  9999,2 52840  53.2180 122.8727 0002011  77.1021 283.0195 15.08840525 94336,6917.879,95.438,541.135,538.353,0.0
52840.0,STARLINK-4049,PAYLOAD,2024-02-27 10:49:31,15.08839447,0.0001583,53.2179,121.6814,85.8432,274.2741,-2.357e-05,-6.63e-06,0.0,0 STARLINK-4049,1 52840U 22062L   24058.45106267 -.00000663  00000-0 -23570-4 0  9999,2 52840  53.2179 121.6814 0001583  85.8432 274.2741 15.08839447 93882,6917.882,95.438,540.842,538.652,0.0
52840.0,STARLINK-4049,PAYLOAD,2024-02-28 10:40:18,15.0884081,0.0001635,53.2181,117.2193,88.5785,271.5394,6.2394e-05,7.05e-06,0.0,0 STARLINK-4049,1 52840U 22062L   24059.44466299  .00000705  00000-0  62394-4 0  9995,2 52840  53.2181 117.2193 0001635  88.5785 271.5394 15.08840810 94527,6917.878,95.438,540.874,538.612,0.0
52840.0,STARLINK-4049,PAYLOAD,2024-02-28 20:12:37,15.08836888,0.0001603,53.2178,115.4346,87.2057,272.9118,6.1003e-05,6.83e-06,0.0,0 STARLINK-4049,1 52840U 22062L   24059.84210573  .00000683  00000-0  61003-4 0  9992,2 52840  53.2178 115.4346 0001603  87.2057 272.9118 15.08836888 94097,6917.89,95.438,540.864,538.646,0.0
52840.0,STARLINK-4049,PAYLOAD,2024-02-29 10:31:06,15.08839592,0.000159,53.2176,112.7585,87.7205,272.3969,0.00014379,2.001e-05,0.0,0 STARLINK-4049,1 52840U 22062L   24060.43826429  .00002001  00000-0  14379-3 0  9991,2 52840  53.2176 112.7585 0001590  87.7205 272.3969 15.08839592 94188,6917.882,95.438,540.847,538.647,0.0
52840.0,STARLINK-4049,PAYLOAD,2024-02-29 20:03:25,15.08834513,0.0001562,53.2172,110.9747,87.1819,272.9352,7.4035e-05,8.9e-06,0.0,0 STARLINK-4049,1 52840U 22062L   24060.83570983  .00000890  00000-0  74035-4 0  9996,2 52840  53.2172 110.9747 0001562  87.1819 272.9352 15.08834513 94739,6917.897,95.438,540.843,538.682,0.0
52840.0,STARLINK-4049,PAYLOAD,2024-03-01 10:21:54,15.08832067,0.0001573,53.2179,108.3001,94.6709,265.4462,1.0821e-05,-1.16e-06,0.0,0 STARLINK-4049,1 52840U 22062L   24061.43187560 -.00000116  00000-0  10821-4 0  9993,2 52840  53.2179 108.3001 0001573  94.6709 265.4462 15.08832067 94330,6917.905,95.438,540.858,538.681,0.0
52840.0,STARLINK-4049,PAYLOAD,2024-03-02 10:12:39,15.08849582,0.0001612,53.2184,103.8405,103.4684,256.6487,0.00012713,1.736e-05,0.0,0 STARLINK-4049,1 52840U 22062L   24062.42546203  .00001736  00000-0  12713-3 0  9995,2 52840  53.2184 103.8405 0001612 103.4684 256.6487 15.08849582 94978,6917.851,95.437,540.831,538.601,0.0
52840.0,STARLINK-4049,PAYLOAD,2024-03-03 03:41:55,15.0881965,0.0001661,53.2177,100.5668,84.4683,275.6498,0.00036127,5.463e-05,0.0,0 STARLINK-4049,1 52840U 22062L   24063.15411685  .00005463  00000-0  36127-3 0  9997,2 52840  53.2177 100.5668 0001661  84.4683 275.6498 15.08819650 95085,6917.943,95.439,540.957,538.659,0.0
52840.0,STARLINK-4049,PAYLOAD,2024-03-03 10:03:27,15.08849522,0.0001529,53.217,99.377,94.6085,265.5082,-9.7594e-05,-1.841e-05,0.0,0 STARLINK-4049,1 52840U 22062L   24063.41906820 -.00001841  00000-0 -97594-4 0  9990,2 52840  53.2170  99.3770 0001529  94.6085 265.5082 15.08849522 95122,6917.851,95.437,540.774,538.659,0.0
52840.0,STARLINK-4049,PAYLOAD,2024-03-03 11:38:50,15.08851382,0.0001507,53.2167,99.0791,93.5942,266.5223,-9.912e-05,-1.866e-05,0.0,0 STARLINK-4049,1 52840U 22062L   24063.48530641 -.00001866  00000-0 -99120-4 0  9995,2 52840  53.2167  99.0791 0001507  93.5942 266.5223 15.08851382 94645,6917.846,95.437,540.753,538.668,0.0
52840.0,STARLINK-4049,PAYLOAD,2024-03-04 08:18:50,15.08854089,0.0001525,53.2162,95.2151,78.4405,281.6758,5.5042e-05,5.88e-06,0.0,0 STARLINK-4049,1 52840U 22062L   24064.34642012  .00000588  00000-0  55042-4 0  9990,2 52840  53.2162  95.2151 0001525  78.4405 281.6758 15.08854089 94776,6917.837,95.437,540.757,538.647,0.0
52840.0,STARLINK-4049,PAYLOAD,2024-03-04 19:26:33,15.08841904,0.0001596,53.2172,93.1313,85.525,274.5924,4.147e-05,3.72e-06,0.0,0 STARLINK-4049,1 52840U 22062L   24064.81010635  .00000372  00000-0  41470-4 0  9993,2 52840  53.2172  93.1313 0001596  85.5250 274.5924 15.08841904 95330,6917.875,95.437,540.844,538.635,0.0
52840.0,STARLINK-4049,PAYLOAD,2024-03-05 01:48:06,15.08836006,0.0002194,53.2161,91.941,89.5855,270.5388,2.8771e-05,1.7e-06,0.0,0 STARLINK-4049,1 52840U 22062L   24065.07507279  .00000170  00000-0  28771-4 0  9992,2 52840  53.2161  91.9410 0002194  89.5855 270.5388 15.08836006 95373,6917.893,95.438,541.275,538.24,0.0
52840.0,STARLINK-4049,PAYLOAD,2024-03-05 11:20:25,15.08828122,0.0001556,53.2169,90.1568,97.7984,262.3185,-3.1505e-05,-7.89e-06,0.0,0 STARLINK-4049,1 52840U 22062L   24065.47252061 -.00000789  00000-0 -31505-4 0  9999,2 52840  53.2169  90.1568 0001556  97.7984 262.3185 15.08828122 94947,6917.917,95.438,540.858,538.705,0.0
52840.0,STARLINK-4049,PAYLOAD,2024-03-06 11:11:11,15.08851441,0.0001532,53.2177,85.6965,103.5379,256.5784,0.0002332,3.426e-05,0.0,0 STARLINK-4049,1 52840U 22062L   24066.46610706  .00003426  00000-0  23320-3 0  9997,2 52840  53.2177  85.6965 0001532 103.5379 256.5784 15.08851441 95585,6917.845,95.437,540.77,538.651,0.0
52840.0,STARLINK-4049,PAYLOAD,2024-03-06 23:54:17,15.0883324,0.0001643,53.2158,83.3134,115.0933,245.023,0.00016857,2.395e-05,0.0,0 STARLINK-4049,1 52840U 22062L   24066.99603754  .00002395  00000-0  16857-3 0  9991,2 52840  53.2158  83.3134 0001643 115.0933 245.0230 15.08833240 95669,6917.901,95.438,540.903,538.629,0.0
52840.0,STARLINK-4049,PAYLOAD,2024-03-07 11:01:59,15.08834304,0.0001397,53.2168,81.2359,92.3429,267.7723,0.00013283,1.826e-05,0.0,0 STARLINK-4049,1 52840U 22062L   24067.45972085  .00001826  00000-0  13283-3 0  9997,2 52840  53.2168  81.2359 0001397  92.3429 267.7723 15.08834304 95243,6917.898,95.438,540.729,538.796,0.0
52840.0,STARLINK-4049,PAYLOAD,2024-03-08 01:20:27,15.08843958,0.0001383,53.2166,78.5595,97.6546,262.4603,8.1213e-05,1.005e-05,0.0,0 STARLINK-4049,1 52840U 22062L   24068.05587630  .00001005  00000-0  81213-4 0  9990,2 52840  53.2166  78.5595 0001383  97.6546 262.4603 15.08843958 95823,6917.868,95.437,540.69,538.777,0.0
52840.0,STARLINK-4049,PAYLOAD,2024-03-08 07:41:59,15.0885242,0.0001404,53.2165,77.3711,97.6698,262.4454,0.00028032,4.178e-05,0.0,0 STARLINK-4049,1 52840U 22062L   24068.32083311  .00004178  00000-0  28032-3 0  9990,2 52840  53.2165  77.3711 0001404  97.6698 262.4454 15.08852420 95379,6917.842,95.437,540.679,538.736,0.0
52840.0,STARLINK-4049,PAYLOAD,2024-03-08 17:14:18,15.0884614,0.0001511,53.217,75.5885,91.6236,268.4929,0.00016865,2.398e-05,0.0,0 STARLINK-4049,1 52840U 22062L   24068.71827445  .00002398  00000-0  16865-3 0  9990,2 52840  53.2170  75.5885 0001511  91.6236 268.4929 15.08846140 95430,6917.862,95.437,540.772,538.681,0.0
52840.0,STARLINK-4049,PAYLOAD,2024-03-09 04:22:01,15.08838776,0.0001861,53.2181,73.5073,88.5001,271.6204,7.5966e-05,9.21e-06,0.0,0 STARLINK-4049,1 52840U 22062L   24069.18195954  .00000921  00000-0  75966-4 0  9993,2 52840  53.2181  73.5073 0001861  88.5001 271.6204 15.08838776 95991,6917.884,95.438,541.037,538.462,0.0
52840.0,STARLINK-4049,PAYLOAD,2024-03-09 09:08:10,15.08841267,0.0001411,53.2163,72.6131,89.0164,271.099,0.00015848,2.235e-05,0.0,0 STARLINK-4049,1 52840U 22062L   24069.38067831  .00002235  00000-0  15848-3 0  9999,2 52840  53.2163  72.6131 0001411  89.0164 271.0990 15.08841267 95538,6917.877,95.437,540.718,538.765,0.0
52840.0,STARLINK-4049,PAYLOAD,2024-03-09 17:05:06,15.08842448,0.0001364,53.2159,71.1257,89.7574,270.3575,0.00012143,1.645e-05,0.0,0 STARLINK-4049,1 52840U 22062L   24069.71187734  .00001645  00000-0  12143-3 0  9990,2 52840  53.2159  71.1257 0001364  89.7574 270.3575 15.08842448 95583,6917.873,95.437,540.682,538.794,0.0
